{
    "links": {
        "self": "http://www.neowsapp.com/rest/v1/neo/3551407?api_key=iIulBulltgU6a56xZRHN4H3l9WmuAYTsLGpBGhQ2"
    },
    "id": "3551407",
    "neo_reference_id": "3551407",
    "name": "(2010 VE139)",
    "designation": "2010 VE139",
    "nasa_jpl_url": "http://ssd.jpl.nasa.gov/sbdb.cgi?sstr=3551407",
    "absolute_magnitude_h": 22.1,
    "estimated_diameter": {
        "kilometers": {
            "estimated_diameter_min": 0.1010543415,
            "estimated_diameter_max": 0.2259643771
        },
        "meters": {
            "estimated_diameter_min": 101.054341542,
            "estimated_diameter_max": 225.9643771094
        },
        "miles": {
            "estimated_diameter_min": 0.0627922373,
            "estimated_diameter_max": 0.140407711
        },
        "feet": {
            "estimated_diameter_min": 331.5431259047,
            "estimated_diameter_max": 741.3529669956
        }
    },
    "is_potentially_hazardous_asteroid": false,
    "close_approach_data": [
        {
            "close_approach_date": "2010-11-28",
            "close_approach_date_full": "2010-Nov-28 14:14",
            "epoch_date_close_approach": 1290953640000,
            "relative_velocity": {
                "kilometers_per_second": "4.4807336842",
                "kilometers_per_hour": "16130.6412631633",
                "miles_per_hour": "10022.9531782139"
            },
            "miss_distance": {
                "astronomical": "0.2428850773",
                "lunar": "94.4822950697",
                "kilometers": "36335090.218865351",
                "miles": "22577578.1257938038"
            },
            "orbiting_body": "Earth"
        }
    ],
    "orbital_data": {
        "orbit_id": "12",
        "orbit_determination_date": "2017-04-06 08:55:44",
        "first_observation_date": "2010-11-13",
        "last_observation_date": "2010-12-05",
        "data_arc_in_days": 22,
        "observations_used": 27,
        "orbit_uncertainty": "7",
        "minimum_orbit_intersection": ".23282",
        "jupiter_tisserand_invariant": "3.360",
        "epoch_osculation": "2459000.5",
        "eccentricity": ".4904396221291414",
        "semi_major_axis": "2.375133830280743",
        "inclination": "6.780500984056239",
        "ascending_node_longitude": "43.5038674806032",
        "orbital_period": "1336.997377042628",
        "perihelion_distance": "1.210274092051715",
        "perihelion_argument": "30.442791280483",
        "aphelion_distance": "3.53999356850977",
        "perihelion_time": "2459546.057135473273",
        "mean_anomaly": "213.1032505053925",
        "mean_motion": ".2692600645158348",
        "equinox": "J2000",
        "orbit_class": {
            "orbit_class_type": "AMO",
            "orbit_class_description": "Near-Earth asteroid orbits similar to that of 1221 Amor",
            "orbit_class_range": "1.017 AU < q (perihelion) < 1.3 AU"
        }
    },
    "is_sentry_object": false
}